NORAD_CAT_ID,OBJECT_NAME,OBJECT_TYPE,EPOCH,MEAN_MOTION,ECCENTRICITY,INCLINATION,RA_OF_ASC_NODE,ARG_OF_PERICENTER,MEAN_ANOMALY,BSTAR,MEAN_MOTION_DOT,MEAN_MOTION_DDOT,TLE_LINE0,TLE_LINE1,TLE_LINE2,SEMIMAJOR_AXIS,PERIOD,APOGEE,PERIGEE,DECAYED
53017.0,STARLINK-4281,PAYLOAD,2022-09-04 16:00:00,15.73352512,0.0001691,53.2164,86.9919,25.9174,30.9423,-0.0060473,-0.00779912,0.0,0 STARLINK-4281,1 53017U 22076AH  22247.66667824 -.00779912  00000-0 -60473-2 0  9994,2 53017  53.2164  86.9919 0001691  25.9174  30.9423 15.73352512  9808,6727.46,91.524,350.463,348.18800000000016,0.0
53017.0,STARLINK-4281,PAYLOAD,2022-09-04 20:00:01,15.72865849,0.0001955,53.2169,86.1632,28.861,252.52,-0.0017869,-0.00240913,0.0,0 STARLINK-4281,1 53017U 22076AH  22247.83334491 -.00240913  00000-0 -17869-2 0  9999,2 53017  53.2169  86.1632 0001955  28.8610 252.5200 15.72865849  1300,6728.848000000001,91.553,352.029,349.398,0.0
53017.0,STARLINK-4281,PAYLOAD,2022-09-05 04:00:00,15.72766522,0.0001645,53.2173,84.5086,27.8553,341.9751,-0.0085148,-0.01055508,0.0,0 STARLINK-4281,1 53017U 22076AH  22248.16667824 -.01055508  00000-0 -85148-2 0  9995,2 53017  53.2173  84.5086 0001645  27.8553 341.9751 15.72766522  9884,6729.130999999999,91.558,352.103,349.889,0.0
53017.0,STARLINK-4281,PAYLOAD,2022-09-05 14:00:01,15.7181604,0.0002061999999999,53.2177,82.4475,26.4089,183.2061,-0.0088399,-0.01052569,0.0,0 STARLINK-4281,1 53017U 22076AH  22248.58334491 -.01052569  00000-0 -88399-2 0  9997,2 53017  53.2177  82.4475 0002062  26.4089 183.2061 15.71816040  1300,6731.844,91.614,355.097,352.321,0.0
53017.0,STARLINK-4281,PAYLOAD,2022-09-05 20:00:01,15.71247347,0.0002166999999999,53.2175,81.2146,9.1482,175.6519,-0.0090803,-0.01055099,0.0,0 STARLINK-4281,1 53017U 22076AH  22248.83334491 -.01055099  00000-0 -90803-2 0  9999,2 53017  53.2175  81.2146 0002167   9.1482 175.6519 15.71247347  9984,6733.468000000003,91.647,356.792,353.874,0.0
53017.0,STARLINK-4281,PAYLOAD,2022-09-05 22:00:00,15.71059481,0.0001333,53.2174,80.8074,16.2717,280.1382,-0.0091569,-0.01055173,0.0,0 STARLINK-4281,1 53017U 22076AH  22248.91667824 -.01055173  00000-0 -91569-2 0  9990,2 53017  53.2174  80.8074 0001333  16.2717 280.1382 15.71059481  1300,6734.005,91.658,356.767,354.972,0.0
53017.0,STARLINK-4281,PAYLOAD,2022-09-06 12:00:00,15.69726178,0.0001312,53.2175,77.9257,42.9444,313.1766,-0.0096388999999999,-0.01050543,0.0,0 STARLINK-4281,1 53017U 22076AH  22249.50001157 -.01050543  00000-0 -96389-2 0  9998,2 53017  53.2175  77.9257 0001312  42.9444 313.1766 15.69726178 10091,6737.816999999999,91.736,360.566,358.798,0.0
53017.0,STARLINK-4281,PAYLOAD,2022-09-06 14:00:01,15.69536082,0.0001503,53.2176,77.5158,42.0388,65.2403,-0.0097077999999999,-0.01049827,0.0,0 STARLINK-4281,1 53017U 22076AH  22249.58334491 -.01049827  00000-0 -97078-2 0  9995,2 53017  53.2176  77.5158 0001503  42.0388  65.2403 15.69536082  1308,6738.361,91.747,361.239,359.214,0.0
53017.0,STARLINK-4281,PAYLOAD,2022-09-06 22:00:00,15.68775702,0.0001740999999999,53.2175,75.8775,37.2476,154.093,-0.0099998999999999,-0.01047991,0.0,0 STARLINK-4281,1 53017U 22076AH  22249.91667824 -.01047991  00000-0 -99999-2 0  9995,2 53017  53.2175  75.8775 0001741  37.2476 154.0930 15.68775702  1306,6740.5390000000025,91.791,363.577,361.23,0.0
53017.0,STARLINK-4281,PAYLOAD,2022-09-07 04:00:00,15.68208779,0.000151,53.2173,74.6474,44.1396,119.6489,-0.01029,-0.01052731,0.0,0 STARLINK-4281,1 53017U 22076AH  22250.16667824 -.01052731  00000-0 -10290-1 0  9998,2 53017  53.2173  74.6474 0001510  44.1396 119.6489 15.68208779 10197,6742.163000000001,91.825,365.046,363.01,0.0
53017.0,STARLINK-4281,PAYLOAD,2022-09-07 14:00:01,15.67260256,0.0001426,53.2176,72.6007,38.2428,318.4844,-0.010704,-0.01053085,0.0,0 STARLINK-4281,1 53017U 22076AH  22250.58334491 -.01053085  00000-0 -10704-1 0  9998,2 53017  53.2176  72.6007 0001426  38.2428 318.4844 15.67260256  1300,6744.8830000000025,91.88,367.71,365.786,0.0
53017.0,STARLINK-4281,PAYLOAD,2022-09-07 20:00:01,15.66690991,0.0001504,53.2175,71.3761,38.0408,289.8297,-0.010967,-0.01054058,0.0,0 STARLINK-4281,1 53017U 22076AH  22250.83335648 -.01054058  00000-0 -10967-1 0  9993,2 53017  53.2175  71.3761 0001504  38.0408 289.8297 15.66690991 10300,6746.517,91.913,369.397,367.367,0.0
53017.0,STARLINK-4281,PAYLOAD,2022-09-07 22:00:00,15.66496756,0.0001639,53.2176,70.9679,34.2596,43.7927,-0.01097,-0.01046894,0.0,0 STARLINK-4281,1 53017U 22076AH  22250.91667824 -.01046894  00000-0 -10970-1 0  9999,2 53017  53.2176  70.9679 0001639  34.2596  43.7927 15.66496756  1309,6747.075,91.925,370.045,367.834,0.0
53017.0,STARLINK-4281,PAYLOAD,2022-09-08 14:00:01,15.64979638,0.0001561999999999,53.2178,67.7024,42.5074,195.4558,-0.0116879999999999,-0.01048775,0.0,0 STARLINK-4281,1 53017U 22076AH  22251.58334491 -.01048775  00000-0 -11688-1 0  9991,2 53017  53.2178  67.7024 0001562  42.5074 195.4558 15.64979638  1305,6751.434,92.014,374.354,372.245,0.0
53017.0,STARLINK-4281,PAYLOAD,2022-09-08 22:00:00,15.64219596,0.0001289,53.2174,66.075,49.9138,266.635,-0.012039,-0.0104787,0.0,0 STARLINK-4281,1 53017U 22076AH  22251.91667824 -.01047870  00000-0 -12039-1 0  9993,2 53017  53.2174  66.0750 0001289  49.9138 266.6350 15.64219596 10476,6753.621,92.059,376.357,374.616,0.0
53017.0,STARLINK-4281,PAYLOAD,2022-09-09 14:00:01,15.62700957,0.0001739,53.2175,62.8205,34.2684,76.7163,-0.0127879999999999,-0.01064393,0.0,0 STARLINK-4281,1 53017U 22076AH  22252.58334491 -.01064393  00000-0 -12788-1 0  9998,2 53017  53.2175  62.8205 0001739  34.2684  76.7163 15.62700957  1307,6757.996,92.148,381.036,378.686,0.0
53017.0,STARLINK-4281,PAYLOAD,2022-09-09 22:00:00,15.61936576,0.0001788,53.2174,61.1986,35.4018,151.43200000000004,-0.013061,-0.0105582,0.0,0 STARLINK-4281,1 53017U 22076AH  22252.91667824 -.01055820  00000-0 -13061-1 0  9994,2 53017  53.2174  61.1986 0001788  35.4018 151.4320 15.61936576  1305,6760.201,92.193,383.274,380.857,0.0
53017.0,STARLINK-4281,PAYLOAD,2022-09-10 04:00:00,15.61372948,0.00015,53.2174,59.9805,45.9837,107.1365,-0.0134919999999999,-0.01065854,0.0,0 STARLINK-4281,1 53017U 22076AH  22253.16667824 -.01065854  00000-0 -13492-1 0  9998,2 53017  53.2174  59.9805 0001500  45.9837 107.1365 15.61372948 10660,6761.8269999999975,92.227,384.707,382.67800000000005,0.0
53017.0,STARLINK-4281,PAYLOAD,2022-09-10 14:00:01,15.60424069,0.0001529,53.2176,57.9553,35.8515,299.9399,-0.0140039999999999,-0.01066281,0.0,0 STARLINK-4281,1 53017U 22076AH  22253.58334491 -.01066281  00000-0 -14004-1 0  9990,2 53017  53.2176  57.9553 0001529  35.8515 299.9399 15.60424069  1301,6764.568,92.283,387.468,385.399,0.0
53017.0,STARLINK-4281,PAYLOAD,2022-09-10 20:00:01,15.5985404,0.0001612,53.2176,56.7429,37.0286,263.6804,-0.014302,-0.0106541,0.0,0 STARLINK-4281,1 53017U 22076AH  22253.83334491 -.01065410  00000-0 -14302-1 0  9992,2 53017  53.2176  56.7429 0001612  37.0286 263.6804 15.59854040 10776,6766.215999999999,92.316,389.172,386.99,0.0
53017.0,STARLINK-4281,PAYLOAD,2022-09-10 22:00:00,15.59660792,0.0001725,53.2173,56.3386,30.0217,18.8806,-0.014322,-0.01059604,0.0,0 STARLINK-4281,1 53017U 22076AH  22253.91667824 -.01059604  00000-0 -14322-1 0  9990,2 53017  53.2173  56.3386 0001725  30.0217  18.8806 15.59660792  1303,6766.775,92.328,389.807,387.473,0.0
53017.0,STARLINK-4281,PAYLOAD,2022-09-11 12:00:00,15.58332751,0.0001791,53.2176,53.5094,31.149,53.5013,-0.015091,-0.01061133,0.0,0 STARLINK-4281,1 53017U 22076AH  22254.50001157 -.01061133  00000-0 -15091-1 0  9991,2 53017  53.2176  53.5094 0001791  31.1490  53.5013 15.58332751 10877,6770.619000000002,92.406,393.697,391.271,0.0
53017.0,STARLINK-4281,PAYLOAD,2022-09-11 14:00:01,15.58142478,0.0001835,53.2176,53.1066,35.5021,156.8837,-0.015189,-0.01060419,0.0,0 STARLINK-4281,1 53017U 22076AH  22254.58334491 -.01060419  00000-0 -15189-1 0  9993,2 53017  53.2176  53.1066 0001835  35.5021 156.8837 15.58142478  1303,6771.17,92.418,394.278,391.793,0.0
53017.0,STARLINK-4281,PAYLOAD,2022-09-11 22:00:00,15.57381895,0.000176,53.2172,51.4953,33.2423,229.5153,-0.01559,-0.01057773,0.0,0 STARLINK-4281,1 53017U 22076AH  22254.91667824 -.01057773  00000-0 -15590-1 0  9994,2 53017  53.2172  51.4953 0001760  33.2423 229.5153 15.57381895  1309,6773.375,92.463,396.432,394.047,0.0
53017.0,STARLINK-4281,PAYLOAD,2022-09-12 04:00:00,15.56816255,0.000159,53.2174,50.2854,42.6007,182.3372,-0.016046,-0.01065013,0.0,0 STARLINK-4281,1 53017U 22076AH  22255.16667824 -.01065013  00000-0 -16046-1 0  9995,2 53017  53.2174  50.2854 0001590  42.6007 182.3372 15.56816255 10986,6775.015,92.496,397.957,395.80300000000005,0.0
53017.0,STARLINK-4281,PAYLOAD,2022-09-12 14:00:01,15.5586614,0.0001715,53.2174,48.2744,31.1508,9.6136,-0.016602,-0.01063612,0.0,0 STARLINK-4281,1 53017U 22076AH  22255.58334491 -.01063612  00000-0 -16602-1 0  9993,2 53017  53.2174  48.2744 0001715  31.1508   9.6136 15.55866140  1301,6777.773,92.553,400.8,398.476,0.0
53017.0,STARLINK-4281,PAYLOAD,2022-09-12 20:00:01,15.5529535,0.0001419,53.2174,47.0701,41.4563,320.1841,-0.016925,-0.01061627,0.0,0 STARLINK-4281,1 53017U 22076AH  22255.83335648 -.01061627  00000-0 -16925-1 0  9998,2 53017  53.2174  47.0701 0001419  41.4563 320.1841 15.55295350 11086,6779.431,92.587,402.258,400.334,0.0
53017.0,STARLINK-4281,PAYLOAD,2022-09-12 22:00:00,15.55104279,0.0001908,53.2166,46.6697,31.6238,76.7738,-0.016981,-0.01058122,0.0,0 STARLINK-4281,1 53017U 22076AH  22255.91667824 -.01058122  00000-0 -16981-1 0  9999,2 53017  53.2166  46.6697 0001908  31.6238  76.7738 15.55104279  1301,6779.986999999999,92.598,403.145,400.5580000000001,0.0
53017.0,STARLINK-4281,PAYLOAD,2022-09-13 14:00:01,15.53584961,0.0001746,53.2176,43.4588,38.0759,202.8547,-0.01796,-0.01058147,0.0,0 STARLINK-4281,1 53017U 22076AH  22256.58334491 -.01058147  00000-0 -17960-1 0  9999,2 53017  53.2176  43.4588 0001746  38.0759 202.8547 15.53584961  1303,6784.406,92.689,407.456,405.087,0.0
